ONEWEB-0256             
1 48974U 21060H   23251.86548748  .00000189  00000+0  46090-3 0  9993
2 48974  87.8989  70.2907 0001676  98.0283 262.1038 13.16604674106421
ONEWEB-0257             
1 48975U 21060J   23251.74728187  .00000013  00000+0 -12957-6 0  9993
2 48975  87.8963  70.2841 0001760  97.2543 262.8788 13.16595515106360
ONEWEB-0258             
1 48976U 21060K   23252.05336254  .00000016  00000+0  86414-5 0  9999
2 48976  87.8983  70.2518 0001830  87.5507 272.5833 13.16590842107698
ONEWEB-0259             
1 48977U 21060L   23252.42703488 -.00000058  00000+0 -18654-3 0  9995
2 48977  87.8985  70.1619 0002021  83.0318 277.1042 13.16594468107787
ONEWEB-0260             
1 48978U 21060M   23252.42067225  .00000104  00000+0  23803-3 0  9990
2 48978  87.8993  70.1940 0001703 117.8115 242.3188 13.16596360107756
ONEWEB-0261             
1 48979U 21060N   23252.46291738  .00000041  00000+0  72415-4 0  9997
2 48979  87.9078  70.1479 0002184  98.4413 261.6966 13.16594845107831
ONEWEB-0262             
1 48980U 21060P   23252.06393494 -.00000015  00000+0 -73651-4 0  9993
2 48980  87.8987  70.2213 0002292  83.3001 276.8391 13.16592257107749
ONEWEB-0263             
1 48981U 21060Q   23252.39957786  .00000167  00000+0  40217-3 0  9997
2 48981  87.8989  70.1712 0002290  91.7080 268.4313 13.16595345107756
